IRIDIUM 171             
1 43929U 19002H   25288.90174596  .00000051  00000+0  11078-4 0  9991
2 43929  86.3922  95.9852 0001805  85.0948 275.0454 14.34217830353949
IRIDIUM 170             
1 43930U 19002J   25288.88923187  .00000535  00000+0  80968-4 0  9999
2 43930  86.6037  95.7173 0002166  87.6147 272.5318 14.72249895363316
IRIDIUM 167             
1 43931U 19002K   25288.75586542  .00000014  00000+0 -21093-5 0  9994
2 43931  86.3916  95.7871 0001830  77.8153 282.3248 14.34217730353928
IRIDIUM 181             
1 56726U 23068S   25288.92846238  .00000541  00000+0  15470-3 0  9991
2 56726  86.4544 158.8660 0001593  89.9617 270.1767 14.43306324127203
IRIDIUM 177             
1 56727U 23068T   25288.87515888  .00000905  00000+0  11556-3 0  9995
2 56727  86.1923  84.8133 0002161  89.6237 270.5232 14.80237920130225
IRIDIUM 174             
1 56728U 23068U   25288.74098170  .00000618  00000+0  94136-4 0  9999
2 56728  86.6046  95.9023 0002795  92.2033 267.9504 14.72251600130050
IRIDIUM 178             
1 56729U 23068V   25288.86426797  .00000464  00000+0  57588-4 0  9992
2 56729  86.6519 127.4875 0002157  78.8112 281.3352 14.80227479130228
IRIDIUM 179             
1 56730U 23068W   25288.85889000  .00001893  00000+0  24562-3 0  9995
2 56730  86.6776 135.7336 0002022  65.6177 294.5256 14.80241312130226
